OBJECT_NAME,OBJECT_ID,EPOCH,MEAN_MOTION,ECCENTRICITY,INCLINATION,RA_OF_ASC_NODE,ARG_OF_PERICENTER,MEAN_ANOMALY,EPHEMERIS_TYPE,CLASSIFICATION_TYPE,NORAD_CAT_ID,ELEMENT_SET_NO,REV_AT_EPOCH,BSTAR,MEAN_MOTION_DOT,MEAN_MOTION_DDOT
GAOFEN-11 01,2018-063A,2026-07-13T14:38:57.484320,15.56043852,.00029137,97.1283,261.4265,205.7342,154.3769,0,U,43585,999,44445,.21671968E-3,.15006E-3,0
ICESAT-2,2018-070A,2026-07-13T13:02:05.867808,15.28332720,.0005551,92.0094,298.1010,69.4427,290.7417,0,U,43613,999,43648,.19748915E-3,.545E-4,0
HYSIS,2018-096A,2026-07-13T14:28:17.908320,14.78667752,.00018559,97.9836,261.1422,84.5683,275.5740,0,U,43719,999,41132,.74204062E-4,.492E-5,0
KAZSTSAT,2018-099AB,2026-07-13T07:34:16.231296,14.99953170,.00074587,97.4319,225.0657,348.5127,11.5926,0,U,43783,999,41522,.58934387E-4,.676E-5,0
SAUDISAT 5A,2018-102A,2026-07-13T14:50:38.931360,15.28310658,.00105662,97.3056,255.6921,48.8286,311.3863,0,U,43831,999,41971,.11239394E-3,.303E-4,0
SAUDISAT 5B,2018-102C,2026-07-13T15:11:33.537984,15.28554522,.00113393,97.3166,258.8239,50.1984,310.0252,0,U,43833,999,41983,.10687769E-3,.29E-4,0
GAOFEN-10R,2019-066A,2026-07-13T14:26:57.729120,14.83055107,.00069418,98.0514,148.3751,57.2105,302.9776,0,U,44622,999,36629,.75069555E-4,.556E-5,0
CARTOSAT-3,2019-081A,2026-07-13T15:13:22.956672,15.19320267,.00132441,97.4300,256.0741,65.9440,294.3179,0,U,44804,999,36748,.16309967E-3,.3383E-4,0
GAOFEN-12 01,2019-082A,2026-07-13T15:23:52.075680,14.80478875,.00010538,97.8108,200.3236,53.2906,306.8403,0,U,44819,999,35800,.30166985E-4,.18E-5,0
CSG-1,2019-092A,2026-07-13T15:36:44.953920,14.82156037,.00014924,97.8894,17.8706,90.0364,270.1020,0,U,44873,999,35539,.28958263E-4,.178E-5,0
NEMO-HD,2020-061F,2026-07-13T14:55:43.874112,15.45116697,.00009759,97.1911,256.3147,91.9865,268.1496,0,U,46277,999,32606,.14325129E-3,.6692E-4,0
SENTINEL-6A,2020-086A,2026-07-12T22:17:12.577920,12.80930069,.0007812,66.0413,81.5884,269.9474,90.0646,0,U,46984,999,26362,.8170496E-5,-.59E-6,0
CAS500-1,2021-022A,2026-07-13T15:44:52.116864,15.20172253,.00050509,97.3873,89.3699,173.4507,186.6795,0,U,47932,999,29478,.17143474E-3,.3644E-4,0
GAOFEN-12 02,2021-026A,2026-07-13T14:06:33.567264,14.80315273,.00057279,97.9933,192.6620,136.4037,223.7628,0,U,48079,999,28566,.26888539E-4,.152E-5,0
PLEIADES NEO 3,2021-034A,2026-07-13T15:47:59.465760,14.81670638,.0001416,97.8952,269.0448,167.3074,192.8174,0,U,48268,999,28157,.72481E-4,.518E-5,0
PLEIADES NEO 4,2021-073E,2026-07-13T16:36:37.307808,14.81670547,.0001315,97.8941,269.0737,100.2843,259.8518,0,U,49070,999,26529,.43395E-4,.289E-5,0
LANDSAT 9,2021-088A,2026-07-13T15:13:35.390496,14.57094809,.00011437,98.2272,264.4902,88.7555,271.3775,0,U,49260,999,25485,.42142774E-4,.144E-5,0
CSG-2,2022-008A,2026-07-13T14:48:05.415840,14.82151345,.00015579,97.8890,17.8320,86.8984,273.2407,0,U,51444,999,24050,.77408955E-4,.564E-5,0
GAOFEN-12 03,2022-069A,2026-07-13T14:56:09.713760,14.80072740,.00024651,97.8254,81.8228,74.0365,286.1119,0,U,52912,999,21852,.7392535E-5,.5E-7,0
SWOT,2022-173A,2026-07-13T15:22:34.489344,14.00172302,.00002834,77.6108,359.5965,79.2215,280.8968,0,U,54754,999,18285,.49521313E-4,.7E-6,0
GAOFEN-12 04,2023-123A,2026-07-13T15:24:04.379904,14.79773657,.00035877,97.9103,112.2647,53.6971,306.4572,0,U,57654,999,15654,.71465217E-4,.486E-5,0
PARS 1,2024-039Q,2026-07-13T14:13:49.475136,15.46267045,.00099628,97.4832,176.3569,32.1068,328.0786,0,U,59065,999,13272,.14462963E-3,.7037E-4,0
RESURS-P 4,2024-061A,2026-07-13T13:58:20.001216,15.32274184,.00032266,97.2758,142.0250,91.8379,268.3233,0,U,59371,999,12780,.57710395E-4,.1723E-4,0
LEGION 1,2024-081A,2026-07-13T13:11:49.182720,15.16837515,.00076857,97.5014,272.1271,276.2896,83.7461,0,U,59625,999,12153,.1069937E-3,.2038E-4,0
LEGION 2,2024-081B,2026-07-13T15:30:32.227776,15.16816620,.0010121,97.5016,272.3193,239.3834,120.6402,0,U,59626,999,12155,.10521203E-3,.2002E-4,0
ALOS-4 (DAICHI-4),2024-123A,2026-07-13T14:28:16.652928,14.79467541,.00015648,97.9222,291.3997,98.9597,261.1792,0,U,60182,999,10978,.55792044E-4,.365E-5,0
LEGION 3,2024-146A,2026-07-13T13:22:03.624960,15.15649703,.0008352,45.0021,249.1697,325.3028,34.7304,0,U,60452,999,10602,.10505175E-3,.1769E-4,0
LEGION 4,2024-146B,2026-07-13T13:21:44.358624,15.15674013,.0008928,45.0030,341.0376,103.4611,256.7263,0,U,60453,999,10487,.12923474E-3,.2238E-4,0
SENTINEL-2C,2024-157A,2026-07-13T04:28:37.162272,14.30815320,.0000944,98.5685,268.5997,101.9124,258.2165,0,U,60989,999,9670,.31702E-4,.39E-6,0
IONOSFERA-M 1,2024-199A,2026-07-13T15:16:16.036608,14.22758927,.00021791,98.7137,67.5250,74.8510,285.2909,0,U,61735,999,13146,.32934776E-4,.3E-6,0
