GAOFEN-11 01            
1 43585U 18063A   26194.61038755  .00015006  00000+0  21672-3 0  9992
2 43585  97.1283 261.4265 0002913 205.7342 154.3769 15.56043852444456
ICESAT-2                
1 43613U 18070A   26194.54312347  .00005450  00000+0  19749-3 0  9990
2 43613  92.0094 298.1010 0005551  69.4427 290.7417 15.28332720436480
HYSIS                   
1 43719U 18096A   26194.60298505  .00000492  00000+0  74204-4 0  9990
2 43719  97.9836 261.1422 0001855  84.5683 275.5740 14.78667752411323
KAZSTSAT                
1 43783U 18099AB  26194.31546564  .00000676  00000+0  58934-4 0  9999
2 43783  97.4319 225.0657 0007458 348.5127  11.5926 14.99953170415227
SAUDISAT 5A             
1 43831U 18102A   26194.61850615  .00003030  00000+0  11239-3 0  9999
2 43831  97.3056 255.6921 0010566  48.8286 311.3863 15.28310658419711
SAUDISAT 5B             
1 43833U 18102C   26194.63302706  .00002900  00000+0  10688-3 0  9998
2 43833  97.3166 258.8239 0011339  50.1984 310.0252 15.28554522419833
GAOFEN-10R              
1 44622U 19066A   26194.60205705  .00000556  00000+0  75070-4 0  9995
2 44622  98.0514 148.3751 0006941  57.2105 302.9776 14.83055107366290
CARTOSAT-3              
1 44804U 19081A   26194.63429348  .00003383  00000+0  16310-3 0  9990
2 44804  97.4300 256.0741 0013244  65.9440 294.3179 15.19320267367481
GAOFEN-12 01            
1 44819U 19082A   26194.64157495  .00000180  00000+0  30167-4 0  9998
2 44819  97.8108 200.3236 0001053  53.2906 306.8403 14.80478875358003
CSG-1                   
1 44873U 19092A   26194.65052030  .00000178  00000+0  28958-4 0  9991
2 44873  97.8894  17.8706 0001492  90.0364 270.1020 14.82156037355394
NEMO-HD                 
1 46277U 20061F   26194.62203558  .00006692  00000+0  14325-3 0  9998
2 46277  97.1911 256.3147 0000975  91.9865 268.1496 15.45116697326061
SENTINEL-6A             
1 46984U 20086A   26193.92861780 -.00000059  00000+0  81705-5 0  9999
2 46984  66.0413  81.5884 0007812 269.9474  90.0646 12.80930069263628
CAS500-1                
1 47932U 21022A   26194.65615876  .00003644  00000+0  17143-3 0  9993
2 47932  97.3873  89.3699 0005050 173.4507 186.6795 15.20172253294785
GAOFEN-12 02            
1 48079U 21026A   26194.58788851  .00000152  00000+0  26889-4 0  9995
2 48079  97.9933 192.6620 0005727 136.4037 223.7628 14.80315273285662
PLEIADES NEO 3          
1 48268U 21034A   26194.65832715  .00000518  00000+0  72481-4 0  9996
2 48268  97.8952 269.0448 0001416 167.3074 192.8174 14.81670638281572
PLEIADES NEO 4          
1 49070U 21073E   26194.69209847  .00000289  00000+0  43395-4 0  9996
2 49070  97.8941 269.0737 0001315 100.2843 259.8518 14.81670547265297
LANDSAT 9               
1 49260U 21088A   26194.63443739  .00000144  00000+0  42143-4 0  9997
2 49260  98.2272 264.4902 0001143  88.7555 271.3775 14.57094809254850
CSG-2                   
1 51444U 22008A   26194.61672935  .00000564  00000+0  77409-4 0  9996
2 51444  97.8890  17.8320 0001557  86.8984 273.2407 14.82151345240503
GAOFEN-12 03            
1 52912U 22069A   26194.62233465  .00000005  00000+0  73925-5 0  9996
2 52912  97.8254  81.8228 0002465  74.0365 286.1119 14.80072740218526
SWOT                    
1 54754U 22173A   26194.64067696  .00000070  00000+0  49521-4 0  9997
2 54754  77.6108 359.5965 0000283  79.2215 280.8968 14.00172302182852
GAOFEN-12 04            
1 57654U 23123A   26194.64171736  .00000486  00000+0  71465-4 0  9999
2 57654  97.9103 112.2647 0003587  53.6971 306.4572 14.79773657156549
PARS 1                  
1 59065U 24039Q   26194.59293374  .00007037  00000+0  14463-3 0  9994
2 59065  97.4832 176.3569 0009962  32.1068 328.0786 15.46267045132722
RESURS-P 4              
1 59371U 24061A   26194.58217594  .00001723  00000+0  57710-4 0  9997
2 59371  97.2758 142.0250 0003226  91.8379 268.3233 15.32274184127801
LEGION 1                
1 59625U 24081A   26194.54987480  .00002038  00000+0  10699-3 0  9999
2 59625  97.5014 272.1271 0007685 276.2896  83.7461 15.16837515121536
LEGION 2                
1 59626U 24081B   26194.64620634  .00002002  00000+0  10521-3 0  9991
2 59626  97.5016 272.3193 0010121 239.3834 120.6402 15.16816620121557
ALOS-4 (DAICHI-4)       
1 60182U 24123A   26194.60297052  .00000365  00000+0  55792-4 0  9997
2 60182  97.9222 291.3997 0001564  98.9597 261.1792 14.79467541109784
LEGION 3                
1 60452U 24146A   26194.55698640  .00001769  00000+0  10505-3 0  9995
2 60452  45.0021 249.1697 0008352 325.3028  34.7304 15.15649703106021
LEGION 4                
1 60453U 24146B   26194.55676341  .00002238  00000+0  12923-3 0  9998
2 60453  45.0030 341.0376 0008928 103.4611 256.7263 15.15674013104873
SENTINEL-2C             
1 60989U 24157A   26194.18654123  .00000039  00000+0  31702-4 0  9991
2 60989  98.5685 268.5997 0000944 101.9124 258.2165 14.30815320 96704
IONOSFERA-M 1           
1 61735U 24199A   26194.63629672  .00000030  00000+0  32935-4 0  9998
2 61735  98.7137  67.5250 0002179  74.8510 285.2909 14.22758927131465
